CCSDS_OMM_VERS = 2.0
CREATION_DATE  = 
ORIGINATOR     = 

OBJECT_NAME    = DELTA 1 R/B
OBJECT_ID      = 1989-089B
CENTER_NAME    = EARTH
REF_FRAME      = TEME
TIME_SYSTEM    = UTC
MEAN_ELEMENT_THEORY = SGP/SGP4

EPOCH          = 2025-11-04T15:08:47.080608
MEAN_MOTION    = 14.50522860
ECCENTRICITY   = .0069769
INCLINATION    = 97.0792
RA_OF_ASC_NODE = 170.9019
ARG_OF_PERICENTER = 156.6078
MEAN_ANOMALY   = 203.8320

EPHEMERIS_TYPE = 0
CLASSIFICATION_TYPE = U
NORAD_CAT_ID   = 20323
ELEMENT_SET_NO = 999
REV_AT_EPOCH   = 87760
BSTAR          = .10612E-3
MEAN_MOTION_DOT = .394E-5
MEAN_MOTION_DDOT = 0

CCSDS_OMM_VERS = 2.0
CREATION_DATE  = 
ORIGINATOR     = 

OBJECT_NAME    = ARIANE 40 R/B
OBJECT_ID      = 1990-005H
CENTER_NAME    = EARTH
REF_FRAME      = TEME
TIME_SYSTEM    = UTC
MEAN_ELEMENT_THEORY = SGP/SGP4

EPOCH          = 2025-11-04T15:44:06.972864
MEAN_MOTION    = 14.39752246
ECCENTRICITY   = .0009475
INCLINATION    = 98.3297
RA_OF_ASC_NODE = 7.9005
ARG_OF_PERICENTER = 215.2152
MEAN_ANOMALY   = 144.8411

EPHEMERIS_TYPE = 0
CLASSIFICATION_TYPE = U
NORAD_CAT_ID   = 20443
ELEMENT_SET_NO = 999
REV_AT_EPOCH   = 87481
BSTAR          = .12753E-3
MEAN_MOTION_DOT = .357E-5
MEAN_MOTION_DDOT = 0

CCSDS_OMM_VERS = 2.0
CREATION_DATE  = 
ORIGINATOR     = 

OBJECT_NAME    = DELTA 2 R/B(1)
OBJECT_ID      = 1990-008B
CENTER_NAME    = EARTH
REF_FRAME      = TEME
TIME_SYSTEM    = UTC
MEAN_ELEMENT_THEORY = SGP/SGP4

EPOCH          = 2025-11-04T14:04:14.178144
MEAN_MOTION    = 15.41679548
ECCENTRICITY   = .011851
INCLINATION    = 35.6083
RA_OF_ASC_NODE = 266.2483
ARG_OF_PERICENTER = 191.7269
MEAN_ANOMALY   = 168.0693

EPHEMERIS_TYPE = 0
CLASSIFICATION_TYPE = U
NORAD_CAT_ID   = 20453
ELEMENT_SET_NO = 999
REV_AT_EPOCH   = 90673
BSTAR          = .59857E-3
MEAN_MOTION_DOT = .33719E-3
MEAN_MOTION_DDOT = 0

CCSDS_OMM_VERS = 2.0
CREATION_DATE  = 
ORIGINATOR     = 

OBJECT_NAME    = COSMOS 2058
OBJECT_ID      = 1990-010A
CENTER_NAME    = EARTH
REF_FRAME      = TEME
TIME_SYSTEM    = UTC
MEAN_ELEMENT_THEORY = SGP/SGP4

EPOCH          = 2025-11-04T19:01:56.014752
MEAN_MOTION    = 15.10034522
ECCENTRICITY   = .0011522
INCLINATION    = 82.4678
RA_OF_ASC_NODE = 170.3578
ARG_OF_PERICENTER = 46.0232
MEAN_ANOMALY   = 314.1946

EPHEMERIS_TYPE = 0
CLASSIFICATION_TYPE = U
NORAD_CAT_ID   = 20465
ELEMENT_SET_NO = 999
REV_AT_EPOCH   = 92338
BSTAR          = .19925E-3
MEAN_MOTION_DOT = .3272E-4
MEAN_MOTION_DDOT = 0

CCSDS_OMM_VERS = 2.0
CREATION_DATE  = 
ORIGINATOR     = 

OBJECT_NAME    = SL-14 R/B
OBJECT_ID      = 1990-010B
CENTER_NAME    = EARTH
REF_FRAME      = TEME
TIME_SYSTEM    = UTC
MEAN_ELEMENT_THEORY = SGP/SGP4

EPOCH          = 2025-11-04T15:14:19.209120
MEAN_MOTION    = 14.83417436
ECCENTRICITY   = .0019658
INCLINATION    = 82.5051
RA_OF_ASC_NODE = 24.8274
ARG_OF_PERICENTER = 356.5457
MEAN_ANOMALY   = 3.5619

EPHEMERIS_TYPE = 0
CLASSIFICATION_TYPE = U
NORAD_CAT_ID   = 20466
ELEMENT_SET_NO = 999
REV_AT_EPOCH   = 90994
BSTAR          = .63158E-4
MEAN_MOTION_DOT = .543E-5
MEAN_MOTION_DDOT = 0

CCSDS_OMM_VERS = 2.0
CREATION_DATE  = 
ORIGINATOR     = 

OBJECT_NAME    = SL-14 R/B
OBJECT_ID      = 1990-018B
CENTER_NAME    = EARTH
REF_FRAME      = TEME
TIME_SYSTEM    = UTC
MEAN_ELEMENT_THEORY = SGP/SGP4

EPOCH          = 2025-11-04T19:15:41.347296
MEAN_MOTION    = 14.81991625
ECCENTRICITY   = .0017441
INCLINATION    = 82.5214
RA_OF_ASC_NODE = 339.8272
ARG_OF_PERICENTER = 139.1648
MEAN_ANOMALY   = 221.0877

EPHEMERIS_TYPE = 0
CLASSIFICATION_TYPE = U
NORAD_CAT_ID   = 20511
ELEMENT_SET_NO = 999
REV_AT_EPOCH   = 90408
BSTAR          = .54917E-4
MEAN_MOTION_DOT = .46E-5
MEAN_MOTION_DDOT = 0

CCSDS_OMM_VERS = 2.0
CREATION_DATE  = 
ORIGINATOR     = 

OBJECT_NAME    = HST
OBJECT_ID      = 1990-037B
CENTER_NAME    = EARTH
REF_FRAME      = TEME
TIME_SYSTEM    = UTC
MEAN_ELEMENT_THEORY = SGP/SGP4

EPOCH          = 2025-11-04T16:56:57.086592
MEAN_MOTION    = 15.27310163
ECCENTRICITY   = .0001806
INCLINATION    = 28.4662
RA_OF_ASC_NODE = 171.2249
ARG_OF_PERICENTER = 160.2000
MEAN_ANOMALY   = 199.8665

EPHEMERIS_TYPE = 0
CLASSIFICATION_TYPE = U
NORAD_CAT_ID   = 20580
ELEMENT_SET_NO = 999
REV_AT_EPOCH   = 75417
BSTAR          = .2478E-3
MEAN_MOTION_DOT = .7044E-4
MEAN_MOTION_DDOT = 0

CCSDS_OMM_VERS = 2.0
CREATION_DATE  = 
ORIGINATOR     = 

OBJECT_NAME    = SL-16 R/B
OBJECT_ID      = 1990-046B
CENTER_NAME    = EARTH
REF_FRAME      = TEME
TIME_SYSTEM    = UTC
MEAN_ELEMENT_THEORY = SGP/SGP4

EPOCH          = 2025-11-04T17:07:00.148224
MEAN_MOTION    = 14.14992252
ECCENTRICITY   = .0012476
INCLINATION    = 70.9990
RA_OF_ASC_NODE = 200.3792
ARG_OF_PERICENTER = 142.1529
MEAN_ANOMALY   = 218.0474

EPHEMERIS_TYPE = 0
CLASSIFICATION_TYPE = U
NORAD_CAT_ID   = 20625
ELEMENT_SET_NO = 999
REV_AT_EPOCH   = 83071
BSTAR          = -.38197E-4
MEAN_MOTION_DOT = -.122E-5
MEAN_MOTION_DDOT = 0

CCSDS_OMM_VERS = 2.0
CREATION_DATE  = 
ORIGINATOR     = 

OBJECT_NAME    = COSMOS 2084
OBJECT_ID      = 1990-055A
CENTER_NAME    = EARTH
REF_FRAME      = TEME
TIME_SYSTEM    = UTC
MEAN_ELEMENT_THEORY = SGP/SGP4

EPOCH          = 2025-11-04T16:35:52.171584
MEAN_MOTION    = 15.04667124
ECCENTRICITY   = .0038049
INCLINATION    = 62.7922
RA_OF_ASC_NODE = 41.6031
ARG_OF_PERICENTER = 170.1316
MEAN_ANOMALY   = 190.0540

EPHEMERIS_TYPE = 0
CLASSIFICATION_TYPE = U
NORAD_CAT_ID   = 20663
ELEMENT_SET_NO = 999
REV_AT_EPOCH   = 91750
BSTAR          = .28664E-3
MEAN_MOTION_DOT = .391E-4
MEAN_MOTION_DDOT = 0

CCSDS_OMM_VERS = 2.0
CREATION_DATE  = 
ORIGINATOR     = 

OBJECT_NAME    = SL-6 R/B(2)
OBJECT_ID      = 1990-055D
CENTER_NAME    = EARTH
REF_FRAME      = TEME
TIME_SYSTEM    = UTC
MEAN_ELEMENT_THEORY = SGP/SGP4

EPOCH          = 2025-11-04T18:37:53.590080
MEAN_MOTION    = 15.02786894
ECCENTRICITY   = .0010669
INCLINATION    = 62.7836
RA_OF_ASC_NODE = 318.3829
ARG_OF_PERICENTER = 274.9483
MEAN_ANOMALY   = 85.0398

EPHEMERIS_TYPE = 0
CLASSIFICATION_TYPE = U
NORAD_CAT_ID   = 20666
ELEMENT_SET_NO = 999
REV_AT_EPOCH   = 91941
BSTAR          = .19395E-3
MEAN_MOTION_DOT = .2414E-4
MEAN_MOTION_DDOT = 0

CCSDS_OMM_VERS = 2.0
CREATION_DATE  = 
ORIGINATOR     = 

OBJECT_NAME    = SL-8 R/B
OBJECT_ID      = 1990-078B
CENTER_NAME    = EARTH
REF_FRAME      = TEME
TIME_SYSTEM    = UTC
MEAN_ELEMENT_THEORY = SGP/SGP4

EPOCH          = 2025-11-04T20:38:14.844192
MEAN_MOTION    = 14.83929448
ECCENTRICITY   = .0382689
INCLINATION    = 82.9084
RA_OF_ASC_NODE = 3.1514
ARG_OF_PERICENTER = 72.5072
MEAN_ANOMALY   = 291.7581

EPHEMERIS_TYPE = 0
CLASSIFICATION_TYPE = U
NORAD_CAT_ID   = 20775
ELEMENT_SET_NO = 999
REV_AT_EPOCH   = 79075
BSTAR          = .40485E-3
MEAN_MOTION_DOT = .13127E-3
MEAN_MOTION_DDOT = 0

CCSDS_OMM_VERS = 2.0
CREATION_DATE  = 
ORIGINATOR     = 

OBJECT_NAME    = SL-8 R/B
OBJECT_ID      = 1991-006B
CENTER_NAME    = EARTH
REF_FRAME      = TEME
TIME_SYSTEM    = UTC
MEAN_ELEMENT_THEORY = SGP/SGP4

EPOCH          = 2025-11-04T19:48:54.539136
MEAN_MOTION    = 13.77481538
ECCENTRICITY   = .002328
INCLINATION    = 82.9401
RA_OF_ASC_NODE = 262.9161
ARG_OF_PERICENTER = 28.2590
MEAN_ANOMALY   = 350.0034

EPHEMERIS_TYPE = 0
CLASSIFICATION_TYPE = U
NORAD_CAT_ID   = 21088
ELEMENT_SET_NO = 999
REV_AT_EPOCH   = 74688
BSTAR          = .11099E-3
MEAN_MOTION_DOT = .126E-5
MEAN_MOTION_DDOT = 0

